{
  "type": "FeatureCollection",
  "features": [
    {
      "type": "Feature",
      "properties": {
        "norad_id": 66541,
        "name": "STARLINK-35796",
        "group": "last-30-days",
        "lat": -35.687069264137605,
        "lon": -47.060275167115755,
        "alt_km": 390.7522072474658,
        "timestamp": "2025-12-07T20:38:12.867166+00:00",
        "meta_object_name": "STARLINK-35796",
        "meta_object_id": "2025-265AB",
        "meta_epoch": "2025-12-07T06:00:04.999968",
        "meta_mean_motion": 15.62255206,
        "meta_eccentricity": 0.0001465,
        "meta_inclination": 43.0006,
        "meta_ra_of_asc_node": 86.1421,
        "meta_arg_of_pericenter": 280.3917,
        "meta_mean_anomaly": 127.481,
        "meta_ephemeris_type": 0,
        "meta_classification_type": "U",
        "meta_norad_cat_id": 66541,
        "meta_element_set_no": 999,
        "meta_rev_at_epoch": 411,
        "meta_bstar": -0.024542977,
        "meta_mean_motion_dot": -0.01960069,
        "meta_mean_motion_ddot": 0,
        "tle_line1": "1 66541U 25265AB  25341.25005787 -.01960069  00000+0 -24543-1 0  9992",
        "tle_line2": "2 66541  43.0006  86.1421 0001465 280.3917 127.4810 15.62255206  4118"
      },
      "geometry": {
        "type": "Point",
        "coordinates": [
          -47.060275167115755,
          -35.687069264137605
        ]
      }
    },
    {
      "type": "Feature",
      "properties": {
        "norad_id": 66542,
        "name": "STARLINK-35833",
        "group": "last-30-days",
        "lat": -36.49911951594973,
        "lon": -44.921000217220474,
        "alt_km": 390.79753270294896,
        "timestamp": "2025-12-07T20:38:12.867176+00:00",
        "meta_object_name": "STARLINK-35833",
        "meta_object_id": "2025-265AC",
        "meta_epoch": "2025-12-07T06:00:04.999968",
        "meta_mean_motion": 15.62255081,
        "meta_eccentricity": 0.00015049,
        "meta_inclination": 43.0007,
        "meta_ra_of_asc_node": 86.1379,
        "meta_arg_of_pericenter": 283.0119,
        "meta_mean_anomaly": 126.7775,
        "meta_ephemeris_type": 0,
        "meta_classification_type": "U",
        "meta_norad_cat_id": 66542,
        "meta_element_set_no": 999,
        "meta_rev_at_epoch": 411,
        "meta_bstar": -0.024544906,
        "meta_mean_motion_dot": -0.01960225,
        "meta_mean_motion_ddot": 0,
        "tle_line1": "1 66542U 25265AC  25341.25005787 -.01960225  00000+0 -24545-1 0  9999",
        "tle_line2": "2 66542  43.0007  86.1379 0001504 283.0119 126.7775 15.62255081  4113"
      },
      "geometry": {
        "type": "Point",
        "coordinates": [
          -44.921000217220474,
          -36.49911951594973
        ]
      }
    },
    {
      "type": "Feature",
      "properties": {
        "norad_id": 66543,
        "name": "STARLINK-35315",
        "group": "last-30-days",
        "lat": -37.27292497561339,
        "lon": -42.73560333758101,
        "alt_km": 390.76504161387584,
        "timestamp": "2025-12-07T20:38:12.867186+00:00",
        "meta_object_name": "STARLINK-35315",
        "meta_object_id": "2025-265AD",
        "meta_epoch": "2025-12-07T06:00:04.999968",
        "meta_mean_motion": 15.622566,
        "meta_eccentricity": 0.00014596,
        "meta_inclination": 43.0007,
        "meta_ra_of_asc_node": 86.1326,
        "meta_arg_of_pericenter": 279.5445,
        "meta_mean_anomaly": 132.1634,
        "meta_ephemeris_type": 0,
        "meta_classification_type": "U",
        "meta_norad_cat_id": 66543,
        "meta_element_set_no": 999,
        "meta_rev_at_epoch": 400,
        "meta_bstar": -0.024595598,
        "meta_mean_motion_dot": -0.01963856,
        "meta_mean_motion_ddot": 0,
        "tle_line1": "1 66543U 25265AD  25341.25005787 -.01963856  00000+0 -24596-1 0  9999",
        "tle_line2": "2 66543  43.0007  86.1326 0001459 279.5445 132.1634 15.62256600  4008"
      },
      "geometry": {
        "type": "Point",
        "coordinates": [
          -42.73560333758101,
          -37.27292497561339
        ]
      }
    },
    {
      "type": "Feature",
      "properties": {
        "norad_id": 66544,
        "name": "STARLINK-35728",
        "group": "last-30-days",
        "lat": -38.00539272967096,
        "lon": -40.50461564045532,
        "alt_km": 390.7651446790469,
        "timestamp": "2025-12-07T20:38:12.867195+00:00",
        "meta_object_name": "STARLINK-35728",
        "meta_object_id": "2025-265AE",
        "meta_epoch": "2025-12-07T06:00:04.999968",
        "meta_mean_motion": 15.62257281,
        "meta_eccentricity": 0.00014625,
        "meta_inclination": 43.0003,
        "meta_ra_of_asc_node": 86.1279,
        "meta_arg_of_pericenter": 279.6101,
        "meta_mean_anomaly": 134.0132,
        "meta_ephemeris_type": 0,
        "meta_classification_type": "U",
        "meta_norad_cat_id": 66544,
        "meta_element_set_no": 999,
        "meta_rev_at_epoch": 411,
        "meta_bstar": -0.024585615,
        "meta_mean_motion_dot": -0.01963204,
        "meta_mean_motion_ddot": 0,
        "tle_line1": "1 66544U 25265AE  25341.25005787 -.01963204  00000+0 -24586-1 0  9996",
        "tle_line2": "2 66544  43.0003  86.1279 0001462 279.6101 134.0132 15.62257281  4118"
      },
      "geometry": {
        "type": "Point",
        "coordinates": [
          -40.50461564045532,
          -38.00539272967096
        ]
      }
    },
    {
      "type": "Feature",
      "properties": {
        "norad_id": 66545,
        "name": "SHIJIAN-30A",
        "group": "last-30-days",
        "lat": -51.46360282555472,
        "lon": -102.89752328939892,
        "alt_km": 521.6757713100078,
        "timestamp": "2025-12-07T20:38:12.867208+00:00",
        "meta_object_name": "SHIJIAN-30A",
        "meta_object_id": "2025-266A",
        "meta_epoch": "2025-12-07T13:08:33.155808",
        "meta_mean_motion": 15.15493602,
        "meta_eccentricity": 0.0012808,
        "meta_inclination": 51.7997,
        "meta_ra_of_asc_node": 357.1855,
        "meta_arg_of_pericenter": 337.7155,
        "meta_mean_anomaly": 22.3263,
        "meta_ephemeris_type": 0,
        "meta_classification_type": "U",
        "meta_norad_cat_id": 66545,
        "meta_element_set_no": 999,
        "meta_rev_at_epoch": 279,
        "meta_bstar": 0.00084449,
        "meta_mean_motion_dot": 0.00015947,
        "meta_mean_motion_ddot": 0,
        "tle_line1": "1 66545U 25266A   25341.54760597  .00015947  00000+0  84449-3 0  9992",
        "tle_line2": "2 66545  51.7997 357.1855 0012808 337.7155  22.3263 15.15493602  2792"
      },
      "geometry": {
        "type": "Point",
        "coordinates": [
          -102.89752328939892,
          -51.46360282555472
        ]
      }
    },
    {
      "type": "Feature",
      "properties": {
        "norad_id": 66546,
        "name": "SHIJIAN-30B",
        "group": "last-30-days",
        "lat": -50.791252163957594,
        "lon": -109.4088790857848,
        "alt_km": 522.7254785364221,
        "timestamp": "2025-12-07T20:38:12.867218+00:00",
        "meta_object_name": "SHIJIAN-30B",
        "meta_object_id": "2025-266B",
        "meta_epoch": "2025-12-07T13:09:40.995360",
        "meta_mean_motion": 15.15578801,
        "meta_eccentricity": 0.0010476,
        "meta_inclination": 51.7979,
        "meta_ra_of_asc_node": 357.188,
        "meta_arg_of_pericenter": 340.7873,
        "meta_mean_anomaly": 19.2707,
        "meta_ephemeris_type": 0,
        "meta_classification_type": "U",
        "meta_norad_cat_id": 66546,
        "meta_element_set_no": 999,
        "meta_rev_at_epoch": 279,
        "meta_bstar": 0.00095687,
        "meta_mean_motion_dot": 0.0001815,
        "meta_mean_motion_ddot": 0,
        "tle_line1": "1 66546U 25266B   25341.54839115  .00018150  00000+0  95687-3 0  9991",
        "tle_line2": "2 66546  51.7979 357.1880 0010476 340.7873  19.2707 15.15578801  2794"
      },
      "geometry": {
        "type": "Point",
        "coordinates": [
          -109.4088790857848,
          -50.791252163957594
        ]
      }
    },
    {
      "type": "Feature",
      "properties": {
        "norad_id": 66547,
        "name": "SHIJIAN-30C",
        "group": "last-30-days",
        "lat": -49.88206225804249,
        "lon": -115.10066745911409,
        "alt_km": 522.022383755897,
        "timestamp": "2025-12-07T20:38:12.867228+00:00",
        "meta_object_name": "SHIJIAN-30C",
        "meta_object_id": "2025-266C",
        "meta_epoch": "2025-12-07T13:10:40.242432",
        "meta_mean_motion": 15.15593743,
        "meta_eccentricity": 0.0011387,
        "meta_inclination": 51.7989,
        "meta_ra_of_asc_node": 357.1936,
        "meta_arg_of_pericenter": 333.0212,
        "meta_mean_anomaly": 27.0171,
        "meta_ephemeris_type": 0,
        "meta_classification_type": "U",
        "meta_norad_cat_id": 66547,
        "meta_element_set_no": 999,
        "meta_rev_at_epoch": 279,
        "meta_bstar": 0.00085903,
        "meta_mean_motion_dot": 0.00016268,
        "meta_mean_motion_ddot": 0,
        "tle_line1": "1 66547U 25266C   25341.54907688  .00016268  00000+0  85903-3 0  9991",
        "tle_line2": "2 66547  51.7989 357.1936 0011387 333.0212  27.0171 15.15593743  2796"
      },
      "geometry": {
        "type": "Point",
        "coordinates": [
          -115.10066745911409,
          -49.88206225804249
        ]
      }
    }
  ]
}